{"type": "FeatureCollection", "features": [{"type": "Feature", "properties": {"norad_id": 28890, "name": "BEIJING 1", "group": "dmc", "lat": -35.54187278690234, "lon": 133.1166156152309, "alt_km": 697.0595065572534, "timestamp": "2025-12-25T14:48:24.468112+00:00", "meta": {"OBJECT_NAME": "BEIJING 1", "OBJECT_ID": "2005-043A", "EPOCH": "2025-12-25T08:24:25.390368", "MEAN_MOTION": 14.63377398, "ECCENTRICITY": 0.00158314, "INCLINATION": 98.2665, "RA_OF_ASC_NODE": 126.8878, "ARG_OF_PERICENTER": 104.3958, "MEAN_ANOMALY": 255.9003, "EPHEMERIS_TYPE": 0, "CLASSIFICATION_TYPE": "U", "NORAD_CAT_ID": 28890, "ELEMENT_SET_NO": 999, "REV_AT_EPOCH": 7522, "BSTAR": 9.845992e-05, "MEAN_MOTION_DOT": 4.61e-06, "MEAN_MOTION_DDOT": 0}, "tle": {"line1": "1 28890U 05043A   25359.35029387  .00000461  00000+0  98460-4 0  9991", "line2": "2 28890  98.2665 126.8878 0015831 104.3958 255.9003 14.63377398 75224"}}, "geometry": {"type": "Point", "coordinates": [133.1166156152309, -35.54187278690234]}}, {"type": "Feature", "properties": {"norad_id": 33320, "name": "HUANJING 1A (HJ-1A)", "group": "dmc", "lat": -18.61072983129245, "lon": 164.7822016186571, "alt_km": 635.7511369961576, "timestamp": "2025-12-25T14:48:24.468140+00:00", "meta": {"OBJECT_NAME": "HUANJING 1A (HJ-1A)", "OBJECT_ID": "2008-041A", "EPOCH": "2025-12-25T07:26:16.751040", "MEAN_MOTION": 14.83431632, "ECCENTRICITY": 0.00192193, "INCLINATION": 97.655, "RA_OF_ASC_NODE": 347.0838, "ARG_OF_PERICENTER": 354.2233, "MEAN_ANOMALY": 5.8757, "EPHEMERIS_TYPE": 0, "CLASSIFICATION_TYPE": "U", "NORAD_CAT_ID": 33320, "ELEMENT_SET_NO": 999, "REV_AT_EPOCH": 93262, "BSTAR": 0.00019028127, "MEAN_MOTION_DOT": 1.516e-05, "MEAN_MOTION_DDOT": 0}, "tle": {"line1": "1 33320U 08041A   25359.30991610  .00001516  00000+0  19028-3 0  9992", "line2": "2 33320  97.6550 347.0838 0019219 354.2233   5.8757 14.83431632932621"}}, "geometry": {"type": "Point", "coordinates": [164.7822016186571, -18.61072983129245]}}, {"type": "Feature", "properties": {"norad_id": 33321, "name": "HUANJING 1B (HJ-1B)", "group": "dmc", "lat": 32.7296249962933, "lon": -13.908464444659769, "alt_km": 592.0028607051363, "timestamp": "2025-12-25T14:48:24.468152+00:00", "meta": {"OBJECT_NAME": "HUANJING 1B (HJ-1B)", "OBJECT_ID": "2008-041B", "EPOCH": "2025-12-25T06:33:42.450336", "MEAN_MOTION": 14.82854674, "ECCENTRICITY": 0.00377199, "INCLINATION": 97.6407, "RA_OF_ASC_NODE": 350.7128, "ARG_OF_PERICENTER": 36.0341, "MEAN_ANOMALY": 324.3405, "EPHEMERIS_TYPE": 0, "CLASSIFICATION_TYPE": "U", "NORAD_CAT_ID": 33321, "ELEMENT_SET_NO": 999, "REV_AT_EPOCH": 93263, "BSTAR": 0.00024306087, "MEAN_MOTION_DOT": 1.941e-05, "MEAN_MOTION_DDOT": 0}, "tle": {"line1": "1 33321U 08041B   25359.27340799  .00001941  00000+0  24306-3 0  9992", "line2": "2 33321  97.6407 350.7128 0037719  36.0341 324.3405 14.82854674932630"}}, "geometry": {"type": "Point", "coordinates": [-13.908464444659769, 32.7296249962933]}}, {"type": "Feature", "properties": {"norad_id": 33446, "name": "YAOGAN-4", "group": "dmc", "lat": -60.26272500500748, "lon": -56.30506911988371, "alt_km": 619.437541921422, "timestamp": "2025-12-25T14:48:24.468163+00:00", "meta": {"OBJECT_NAME": "YAOGAN-4", "OBJECT_ID": "2008-061A", "EPOCH": "2025-12-25T06:59:02.368032", "MEAN_MOTION": 14.82718056, "ECCENTRICITY": 0.00129714, "INCLINATION": 97.9197, "RA_OF_ASC_NODE": 289.268, "ARG_OF_PERICENTER": 278.7687, "MEAN_ANOMALY": 81.2057, "EPHEMERIS_TYPE": 0, "CLASSIFICATION_TYPE": "U", "NORAD_CAT_ID": 33446, "ELEMENT_SET_NO": 999, "REV_AT_EPOCH": 91989, "BSTAR": 0.00017932841, "MEAN_MOTION_DOT": 1.395e-05, "MEAN_MOTION_DDOT": 0}, "tle": {"line1": "1 33446U 08061A   25359.29099963  .00001395  00000+0  17933-3 0  9999", "line2": "2 33446  97.9197 289.2680 0012971 278.7687  81.2057 14.82718056919895"}}, "geometry": {"type": "Point", "coordinates": [-56.30506911988371, -60.26272500500748]}}, {"type": "Feature", "properties": {"norad_id": 35681, "name": "DEIMOS-1", "group": "dmc", "lat": 68.6986879503814, "lon": 139.27405756782576, "alt_km": 636.8697550349598, "timestamp": "2025-12-25T14:48:24.468174+00:00", "meta": {"OBJECT_NAME": "DEIMOS-1", "OBJECT_ID": "2009-041A", "EPOCH": "2025-12-25T06:20:58.631136", "MEAN_MOTION": 14.74969571, "ECCENTRICITY": 0.00024802, "INCLINATION": 97.7157, "RA_OF_ASC_NODE": 159.2854, "ARG_OF_PERICENTER": 60.1323, "MEAN_ANOMALY": 300.0133, "EPHEMERIS_TYPE": 0, "CLASSIFICATION_TYPE": "U", "NORAD_CAT_ID": 35681, "ELEMENT_SET_NO": 999, "REV_AT_EPOCH": 88124, "BSTAR": 6.8820495e-05, "MEAN_MOTION_DOT": 4.15e-06, "MEAN_MOTION_DDOT": 0}, "tle": {"line1": "1 35681U 09041A   25359.26456749  .00000415  00000+0  68820-4 0  9991", "line2": "2 35681  97.7157 159.2854 0002480  60.1323 300.0133 14.74969571881240"}}, "geometry": {"type": "Point", "coordinates": [139.27405756782576, 68.6986879503814]}}, {"type": "Feature", "properties": {"norad_id": 35683, "name": "UK-DMC 2", "group": "dmc", "lat": 62.39020702083712, "lon": -30.532919191458276, "alt_km": 636.0333092435758, "timestamp": "2025-12-25T14:48:24.468184+00:00", "meta": {"OBJECT_NAME": "UK-DMC 2", "OBJECT_ID": "2009-041C", "EPOCH": "2025-12-25T07:46:16.420224", "MEAN_MOTION": 14.75646042, "ECCENTRICITY": 0.00015629, "INCLINATION": 97.8574, "RA_OF_ASC_NODE": 133.8721, "ARG_OF_PERICENTER": 92.5842, "MEAN_ANOMALY": 267.5547, "EPHEMERIS_TYPE": 0, "CLASSIFICATION_TYPE": "U", "NORAD_CAT_ID": 35683, "ELEMENT_SET_NO": 999, "REV_AT_EPOCH": 88092, "BSTAR": 9.5606317e-05, "MEAN_MOTION_DOT": 6.04e-06, "MEAN_MOTION_DDOT": 0}, "tle": {"line1": "1 35683U 09041C   25359.32380116  .00000604  00000+0  95606-4 0  9996", "line2": "2 35683  97.8574 133.8721 0001562  92.5842 267.5547 14.75646042880928"}}, "geometry": {"type": "Point", "coordinates": [-30.532919191458276, 62.39020702083712]}}, {"type": "Feature", "properties": {"norad_id": 40715, "name": "DMC3-FM1", "group": "dmc", "lat": -77.16137816742227, "lon": 10.100211384794108, "alt_km": 616.6689034556084, "timestamp": "2025-12-25T14:48:24.468194+00:00", "meta": {"OBJECT_NAME": "DMC3-FM1", "OBJECT_ID": "2015-032A", "EPOCH": "2025-12-25T07:10:28.032384", "MEAN_MOTION": 14.85459215, "ECCENTRICITY": 0.00040746, "INCLINATION": 97.668, "RA_OF_ASC_NODE": 226.0334, "ARG_OF_PERICENTER": 268.9472, "MEAN_ANOMALY": 91.1277, "EPHEMERIS_TYPE": 0, "CLASSIFICATION_TYPE": "U", "NORAD_CAT_ID": 40715, "ELEMENT_SET_NO": 999, "REV_AT_EPOCH": 56409, "BSTAR": 3.7812443e-05, "MEAN_MOTION_DOT": 2.75e-06, "MEAN_MOTION_DDOT": 0}, "tle": {"line1": "1 40715U 15032A   25359.29893556  .00000275  00000+0  37812-4 0  9997", "line2": "2 40715  97.6680 226.0334 0004074 268.9472  91.1277 14.85459215564093"}}, "geometry": {"type": "Point", "coordinates": [10.100211384794108, -77.16137816742227]}}, {"type": "Feature", "properties": {"norad_id": 40716, "name": "DMC3-FM2", "group": "dmc", "lat": 40.005368224716065, "lon": 54.289889736614725, "alt_km": 611.347195260204, "timestamp": "2025-12-25T14:48:24.468203+00:00", "meta": {"OBJECT_NAME": "DMC3-FM2", "OBJECT_ID": "2015-032B", "EPOCH": "2025-12-25T06:05:50.422848", "MEAN_MOTION": 14.85461869, "ECCENTRICITY": 0.00046331, "INCLINATION": 97.6736, "RA_OF_ASC_NODE": 227.4429, "ARG_OF_PERICENTER": 275.5749, "MEAN_ANOMALY": 84.4938, "EPHEMERIS_TYPE": 0, "CLASSIFICATION_TYPE": "U", "NORAD_CAT_ID": 40716, "ELEMENT_SET_NO": 999, "REV_AT_EPOCH": 56408, "BSTAR": 0.0001082045, "MEAN_MOTION_DOT": 8.82e-06, "MEAN_MOTION_DDOT": 0}, "tle": {"line1": "1 40716U 15032B   25359.25405582  .00000882  00000+0  10820-3 0  9995", "line2": "2 40716  97.6736 227.4429 0004633 275.5749  84.4938 14.85461869564084"}}, "geometry": {"type": "Point", "coordinates": [54.289889736614725, 40.005368224716065]}}, {"type": "Feature", "properties": {"norad_id": 40717, "name": "DMC3-FM3", "group": "dmc", "lat": 23.05932004987335, "lon": -133.8584155531987, "alt_km": 612.6261689524827, "timestamp": "2025-12-25T14:48:24.468213+00:00", "meta": {"OBJECT_NAME": "DMC3-FM3", "OBJECT_ID": "2015-032C", "EPOCH": "2025-12-25T06:37:08.293152", "MEAN_MOTION": 14.85449224, "ECCENTRICITY": 0.00038913, "INCLINATION": 97.6792, "RA_OF_ASC_NODE": 229.1053, "ARG_OF_PERICENTER": 276.7288, "MEAN_ANOMALY": 83.3485, "EPHEMERIS_TYPE": 0, "CLASSIFICATION_TYPE": "U", "NORAD_CAT_ID": 40717, "ELEMENT_SET_NO": 999, "REV_AT_EPOCH": 56409, "BSTAR": 0.00014266314, "MEAN_MOTION_DOT": 1.178e-05, "MEAN_MOTION_DDOT": 0}, "tle": {"line1": "1 40717U 15032C   25359.27579043  .00001178  00000+0  14266-3 0  9999", "line2": "2 40717  97.6792 229.1053 0003891 276.7288  83.3485 14.85449224564092"}}, "geometry": {"type": "Point", "coordinates": [-133.8584155531987, 23.05932004987335]}}]}